satname,norad_id,inclination_deg,eccentricity,mean_motion_rev_per_day,perigee_km,apogee_km,l1,l2
STARLINK-1234,45190,53.0363,0.0004558,15.74604105,342.69323131893543,348.822733985121,1 45190U 20012N   26158.48153727  .00081439  00000+0  54481-3 0  9992,2 45190  53.0363 242.1092 0004558 269.4037  90.6459 15.74604105349972
STARLINK-1269,45197,53.1562,0.0001099,15.34941651,460.34218125846655,461.8454441911026,1 45197U 20012V   26158.79057304  .00042726  00000+0  12469-2 0  9992,2 45197  53.1562 340.0733 0001099 133.3439 226.7656 15.34941651348722
STARLINK-1154,45198,53.0425,0.0001763,15.63767291,375.59544826551155,377.9772342356355,1 45198U 20012W   26158.65872882  .00043439  00000+0  45914-3 0  9998,2 45198  53.0425 295.6157 0001763 354.6948   5.4046 15.63767291349281
STARLINK-1199,45201,53.1555,0.0001602,15.34974778,459.8997829580485,462.0910409828439,1 45201U 20012Z   26158.76164531  .00045210  00000+0  13169-2 0  9995,2 45201  53.1555 324.4769 0001602 258.2735 101.8088 15.34974778348965
STARLINK-1209,45206,53.0374,0.000715,15.6577352,366.1893993734184,375.8406867950298,1 45206U 20012AE  26158.55784902  .00048609  00000+0  47312-3 0  9990,2 45206  53.0374 256.3291 0007150 240.2698 119.7606 15.65773520348931
STARLINK-1231,45212,53.0379,0.0002981,15.2783116,480.2520402577038,484.34223108939204,1 45212U 20012AL  26158.74516214  .00035241  00000+0  12861-2 0  9995,2 45212  53.0379 319.8367 0002981  70.2354 289.8965 15.27831160348962
STARLINK-1271,45217,53.1554,0.0001446,15.35148942,459.48926804263283,461.46699553874714,1 45217U 20012AR  26158.75912181  .00051646  00000+0  14932-2 0  9992,2 45217  53.1554 324.6099 0001446 254.9559 105.1284 15.35148942348964
STARLINK-1191,45222,53.1559,0.0002648,15.39154487,446.8005699396108,450.41601424630335,1 45222U 20012AW  26158.67449911  .00050373  00000+0  12803-2 0  9996,2 45222  53.1559 298.0168 0002648 206.0541 154.0330 15.39154487349332
STARLINK-1212,45223,53.0396,0.000115,15.67159896,366.25837086586944,367.80976021094375,1 45223U 20012AX  26158.83106458  .00052789  00000+0  48583-3 0  9999,2 45223  53.0396 270.5935 0001150 103.0358 257.0785 15.67159896349717
STARLINK-1215,45225,53.1569,0.0002036,15.35212415,458.8973328612392,461.6819401876319,1 45225U 20012AZ  26158.62833147  .00043379  00000+0  12548-2 0  9996,2 45225  53.1569 299.4891 0002036 276.7829  83.2942 15.35212415349264
STARLINK-1221,45227,53.063,0.0002386,15.44846331,430.20477747394943,433.45449355241635,1 45227U 20012BB  26158.40093360  .00015345  00000+0  33028-3 0  9998,2 45227  53.0630 203.5248 0002386 319.9968  40.0862 15.44846331350565
STARLINK-1222,45228,53.0532,0.0002269,15.55131332,400.23252922164556,403.3092514222735,1 45228U 20012BC  26158.63042221  .00030657  00000+0  45228-3 0  9992,2 45228  53.0532 269.7940 0002269  13.6341 346.4730 15.55131332349591
STARLINK-1226,45229,53.1563,0.0002724,15.44113556,432.12833662268713,435.839580120808,1 45229U 20012BD  26158.65833941  .00058256  00000+0  12529-2 0  9994,2 45229  53.1563 295.4057 0002724 271.5205  88.5489 15.44113556349267
STARLINK-1227,45230,53.1536,0.0002892,15.44234662,431.65783272123554,435.5977574787221,1 45230U 20012BE  26158.66819904  .00058424  00000+0  12513-2 0  9990,2 45230  53.1536 295.4656 0002892 261.7287  98.3392 15.44234662349388
STARLINK-1246,45235,53.1554,0.0002164,15.34959305,459.56137447573747,462.5213708754309,1 45235U 20012BK  26158.79692409  .00037240  00000+0  10883-2 0  9999,2 45235  53.1554 339.6679 0002164 209.8689 150.2190 15.34959305348784
STARLINK-1270,45237,53.0402,0.0002578,15.6237382,379.05973791260385,382.5446469602239,1 45237U 20012BM  26158.58976796  .00089895  00000+0  99121-3 0  9998,2 45237  53.0402 273.1611 0002578 296.8089  63.2661 15.62373820349650
STARLINK-1279,45360,53.036,0.0006681,15.74867685,340.51599248191724,349.49945846409446,1 45360U 20019A   26158.83337963  .00007706  00000+0  55249-4 0  9992,2 45360  53.0360  15.1273 0006681 112.8822 213.7409 15.74867685  6022
STARLINK-1301,45361,53.0351,9.43e-05,15.80214242,329.20170351200613,330.46682689262343,1 45361U 20019B   26158.83337963  .00096903  00000+0  50391-3 0  9992,2 45361  53.0351  17.6948 0000943  94.4243  30.1369 15.80214242  6035
STARLINK-1262,45366,53.1534,0.0003897,15.3394104,461.4012989888706,466.73411333685453,1 45366U 20019G   26158.57256140  .00037537  00000+0  11327-2 0  9998,2 45366  53.1534 107.1700 0003897  74.1611 285.9821 15.33941040343522
STARLINK-1273,45367,53.0449,0.0004531,15.57208399,392.67142996714483,398.8099179152705,1 45367U 20019H   26158.49859301  .00076899  00000+0  10345-2 0  9991,2 45367  53.0449  83.2894 0004531  60.4193 299.7269 15.57208399343836
STARLINK-1277,45369,53.041,0.000447,15.64281022,372.2885320141986,378.32611123773313,1 45369U 20019K   26158.00573113  .00092953  00000+0  95036-3 0  9994,2 45369  53.0410  79.7493 0004470  53.6628 306.4798 15.64281022343846
STARLINK-1281,45370,53.1579,0.000473,15.3487454,458.05812025252,464.5282211940239,1 45370U 20019L   26158.58439689  .00024002  00000+0  70836-3 0  9999,2 45370  53.1579 106.7454 0004730  71.8032 288.3485 15.34874540343530
STARLINK-1300,45374,53.1569,0.0004431,15.3529438,457.0162459315143,463.0762439231694,1 45374U 20019Q   26158.14099205  .00035605  00000+0  10300-2 0  9991,2 45374  53.1569 108.7292 0004431  84.0833 276.0675 15.35294380343464
STARLINK-1302,45375,53.0452,0.0005227,15.67268792,363.19608178616545,370.24715698687305,1 45375U 20019R   26158.06675838  .00056048  00000+0  51276-3 0  9997,2 45375  53.0452  75.5450 0005227  69.5597 290.5979 15.67268792343901
STARLINK-1304,45376,53.0413,0.0005302,15.62684703,376.3226256515227,383.48885417292695,1 45376U 20019S   26158.00161726  .00049948  00000+0  54915-3 0  9992,2 45376  53.0413  77.1471 0005302  77.3312 282.8294 15.62684703343875
STARLINK-1305,45377,53.0378,0.0002057,15.71342352,353.67460952362035,356.4446466164072,1 45377U 20019T   26157.45146529  .00081415  00000+0  62611-3 0  9992,2 45377  53.0378  58.4699 0002057 200.5662 159.5273 15.71342352344095
STARLINK-1319,45379,53.0374,0.000303,15.7738569,335.81603675363203,339.8859254701856,1 45379U 20019V   26158.81888503  .00082935  00000+0  49114-3 0  9991,2 45379  53.0374  43.3972 0003030  93.4118 266.7249 15.77385690344426
STARLINK-1266,45383,53.0452,0.0001346,15.65749121,370.1767120936038,371.99360269837416,1 45383U 20019Z   26158.02052583  .00051819  00000+0  50487-3 0  9992,2 45383  53.0452  62.0367 0001346 148.9701 211.1394 15.65749121344083
STARLINK-1267,45384,53.0438,0.0006606,15.65306735,367.89736194165744,376.8161142684421,1 45384U 20019AA  26158.43495690  .00050222  00000+0  49782-3 0  9991,2 45384  53.0438  51.2231 0006606 109.9963 250.1764 15.65306735344274
STARLINK-1272,45386,53.0394,0.0007212,15.69584502,355.2262952295687,364.94550794281713,1 45386U 20019AC  26157.37464095  .00073216  00000+0  60620-3 0  9992,2 45386  53.0394  35.2523 0007212  90.5380 269.6463 15.69584502344405
STARLINK-1274,45387,53.0196,0.000763,15.61735713,377.48467432025063,387.8016248285012,1 45387U 20019AD  26158.35425133  .00081388  00000+0  92038-3 0  9999,2 45387  53.0196  29.6001 0007630 138.3752 221.7843 15.61735713344564
STARLINK-1280,45388,53.0356,0.0001074,15.82061124,323.89282885324064,325.3325794896973,1 45388U 20019AE  26158.83337963  .00095779  00000+0  45753-3 0  9997,2 45388  53.0356  35.6087 0001074  91.9583 332.3055 15.82061124  5970
STARLINK-1283,45389,53.0391,0.0003031,15.71587445,352.31895090563376,356.4001903267417,1 45389U 20019AF  26158.83337963  .00003832  00000+0  33859-4 0  9992,2 45389  53.0391  27.1250 0003031 138.3323  92.1752 15.71587445  6020
STARLINK-1284,45390,53.0407,0.0004197,15.69900393,356.3543208229057,362.0096263693422,1 45390U 20019AG  26158.42849222  .00062761  00000+0  51467-3 0  9995,2 45390  53.0407  53.0145 0004197  45.6932 314.4428 15.69900393344248
STARLINK-1297,45395,53.0414,0.0005988,15.68284933,359.7707577986657,367.8449109323019,1 45395U 20019AM  26158.82509267  .00054389  00000+0  47759-3 0  9992,2 45395  53.0414  50.0861 0005988  58.1164 302.0433 15.68284933343509
STARLINK-1307,45397,53.0526,0.0002232,15.56640103,395.8769414011913,398.9015363142171,1 45397U 20019AP  26158.42926293  .00033849  00000+0  47152-3 0  9997,2 45397  53.0526  57.9043 0002232 106.2062 253.9195 15.56640103344001
STARLINK-1255,45399,53.0341,0.0004881,15.65762506,367.75241673576875,374.34096985716496,1 45399U 20019AR  26158.34362352  .00049865  00000+0  48567-3 0  9996,2 45399  53.0341  26.2174 0004881 112.5006 247.6526 15.65762506344428
STARLINK-1260,45404,53.1543,0.0005022,15.37697493,449.4893578874471,456.35047145254157,1 45404U 20019AW  26158.04300113  .00045270  00000+0  12080-2 0  9993,2 45404  53.1543  72.0074 0005022  84.8247 275.3330 15.37697493343683
STARLINK-1263,45405,53.1583,0.000451,15.34985677,457.8786041342364,464.04747236873936,1 45405U 20019AX  26158.46745002  .00065557  00000+0  18985-2 0  9990,2 45405  53.1583  71.2646 0004510 104.5645 255.5858 15.34985677343739
STARLINK-1265,45406,53.1576,0.0004785,15.38179037,448.22616970231775,454.76212671115263,1 45406U 20019AY  26158.49031476  .00044410  00000+0  11671-2 0  9997,2 45406  53.1576  69.8944 0004785  80.1543 280.0002 15.38179037343751
STARLINK-1278,45408,53.039,0.0006324,15.69040383,357.38138213572256,365.90585666313837,1 45408U 20019BA  26157.45029252  .00072624  00000+0  61521-3 0  9991,2 45408  53.0390  55.8122 0006324  74.4822 285.6892 15.69040383343849
STARLINK-1296,45412,53.156,0.0005375,15.38330289,447.375785235753,454.71715746745576,1 45412U 20019BE  26158.01028751  .00044732  00000+0  11695-2 0  9997,2 45412  53.1560  71.8425 0005375  75.4280 284.7320 15.38330289343683
STARLINK-1309,45414,53.0611,0.0005877,15.68146602,360.2418395731702,368.16678755313296,1 45414U 20019BG  26157.97949330  .00057663  00000+0  50873-3 0  9997,2 45414  53.0611  47.1283 0005877  52.0266 308.1280 15.68146602343998
